SL-14 R/B               
1 21423U 91042B   26025.13551416  .00000696  00000+0  85020-4 0  9998
2 21423  82.4914 261.0338 0017806  28.7909 331.4284 14.81786892846627
ERS-1                   
1 21574U 91050A   26025.04397601  .00000673  00000+0  22994-3 0  9993
2 21574  98.7897  42.1816 0031459 333.5595  26.3985 14.39408962809451
ARIANE 40 R/B           
1 21610U 91050F   26025.12931772  .00000672  00000+0  21385-3 0  9998
2 21610  98.2102  78.9815 0002933 183.6213 176.4957 14.42857667812711
INTERCOSMOS 25          
1 21819U 91086A   26025.31145963  .00001861  00000+0  36712-3 0  9999
2 21819  82.6090 336.2221 1486189 210.4095 140.2020 12.11878650491434
SL-8 R/B                
1 21876U 92008B   26025.32164275  .00000110  00000+0  97707-4 0  9993
2 21876  82.9286 300.0363 0033329 255.5841 224.4723 13.75968211703452
SL-8 R/B                
1 21938U 92020B   26024.46518311  .00000201  00000+0  19246-3 0  9996
2 21938  82.9305 186.5892 0030072  62.5873 351.2212 13.75541198695059
USA 81                  
1 21949U 92023A   26025.27690165  .00000403  00000+0  14184-3 0  9999
2 21949  85.0112 156.4705 0002165 114.0217 246.1203 14.32349147 88576
COSMOS 2219             
1 22219U 92076A   26025.29974503 -.00000156  00000+0 -57013-4 0  9997
2 22219  71.0612 108.7784 0020807 267.2717  92.6024 14.14080907712242
SL-16 R/B               
1 22220U 92076B   26025.14591748 -.00000114  00000+0 -32924-4 0  9997
2 22220  70.9997 280.0993 0012368 171.8916 297.6725 14.16850431715661
COSMOS 2221             
1 22236U 92080A   26025.23108431  .00004200  00000+0  37165-3 0  9991
2 22236  82.5064 320.6949 0014148 345.9915  14.0913 14.95998058774294
SL-16 R/B               
1 22285U 92093B   26025.27727722  .00000060  00000+0  55182-4 0  9993
2 22285  71.0221  95.4039 0004485 341.1453  18.9503 14.15443432707018
COSMOS 2228             
1 22286U 92094A   26025.27580907  .00003054  00000+0  26237-3 0  9991
2 22286  82.5175 278.8780 0019650  87.8383 272.5089 14.96978603769567
