CCSDS_OMM_VERS = 2.0
CREATION_DATE  = 
ORIGINATOR     = 

OBJECT_NAME    = SL-14 R/B
OBJECT_ID      = 1991-042B
CENTER_NAME    = EARTH
REF_FRAME      = TEME
TIME_SYSTEM    = UTC
MEAN_ELEMENT_THEORY = SGP/SGP4

EPOCH          = 2026-01-25T03:15:08.423424
MEAN_MOTION    = 14.81786892
ECCENTRICITY   = .00178066
INCLINATION    = 82.4914
RA_OF_ASC_NODE = 261.0338
ARG_OF_PERICENTER = 28.7909
MEAN_ANOMALY   = 331.4284

EPHEMERIS_TYPE = 0
CLASSIFICATION_TYPE = U
NORAD_CAT_ID   = 21423
ELEMENT_SET_NO = 999
REV_AT_EPOCH   = 84662
BSTAR          = .85020356E-4
MEAN_MOTION_DOT = .696E-5
MEAN_MOTION_DDOT = 0

CCSDS_OMM_VERS = 2.0
CREATION_DATE  = 
ORIGINATOR     = 

OBJECT_NAME    = ERS-1
OBJECT_ID      = 1991-050A
CENTER_NAME    = EARTH
REF_FRAME      = TEME
TIME_SYSTEM    = UTC
MEAN_ELEMENT_THEORY = SGP/SGP4

EPOCH          = 2026-01-25T01:03:19.527264
MEAN_MOTION    = 14.39408962
ECCENTRICITY   = .00314597
INCLINATION    = 98.7897
RA_OF_ASC_NODE = 42.1816
ARG_OF_PERICENTER = 333.5595
MEAN_ANOMALY   = 26.3985

EPHEMERIS_TYPE = 0
CLASSIFICATION_TYPE = U
NORAD_CAT_ID   = 21574
ELEMENT_SET_NO = 999
REV_AT_EPOCH   = 80945
BSTAR          = .22994335E-3
MEAN_MOTION_DOT = .673E-5
MEAN_MOTION_DDOT = 0

CCSDS_OMM_VERS = 2.0
CREATION_DATE  = 
ORIGINATOR     = 

OBJECT_NAME    = ARIANE 40 R/B
OBJECT_ID      = 1991-050F
CENTER_NAME    = EARTH
REF_FRAME      = TEME
TIME_SYSTEM    = UTC
MEAN_ELEMENT_THEORY = SGP/SGP4

EPOCH          = 2026-01-25T03:06:13.051008
MEAN_MOTION    = 14.42857667
ECCENTRICITY   = .00029337
INCLINATION    = 98.2102
RA_OF_ASC_NODE = 78.9815
ARG_OF_PERICENTER = 183.6213
MEAN_ANOMALY   = 176.4957

EPHEMERIS_TYPE = 0
CLASSIFICATION_TYPE = U
NORAD_CAT_ID   = 21610
ELEMENT_SET_NO = 999
REV_AT_EPOCH   = 81271
BSTAR          = .21385064E-3
MEAN_MOTION_DOT = .672E-5
MEAN_MOTION_DDOT = 0

CCSDS_OMM_VERS = 2.0
CREATION_DATE  = 
ORIGINATOR     = 

OBJECT_NAME    = INTERCOSMOS 25
OBJECT_ID      = 1991-086A
CENTER_NAME    = EARTH
REF_FRAME      = TEME
TIME_SYSTEM    = UTC
MEAN_ELEMENT_THEORY = SGP/SGP4

EPOCH          = 2026-01-25T07:28:30.112032
MEAN_MOTION    = 12.11878650
ECCENTRICITY   = .14861899
INCLINATION    = 82.6090
RA_OF_ASC_NODE = 336.2221
ARG_OF_PERICENTER = 210.4095
MEAN_ANOMALY   = 140.2020

EPHEMERIS_TYPE = 0
CLASSIFICATION_TYPE = U
NORAD_CAT_ID   = 21819
ELEMENT_SET_NO = 999
REV_AT_EPOCH   = 49143
BSTAR          = .36711696E-3
MEAN_MOTION_DOT = .1861E-4
MEAN_MOTION_DDOT = 0

CCSDS_OMM_VERS = 2.0
CREATION_DATE  = 
ORIGINATOR     = 

OBJECT_NAME    = SL-8 R/B
OBJECT_ID      = 1992-008B
CENTER_NAME    = EARTH
REF_FRAME      = TEME
TIME_SYSTEM    = UTC
MEAN_ELEMENT_THEORY = SGP/SGP4

EPOCH          = 2026-01-25T07:43:09.933600
MEAN_MOTION    = 13.75968211
ECCENTRICITY   = .0033329
INCLINATION    = 82.9286
RA_OF_ASC_NODE = 300.0363
ARG_OF_PERICENTER = 255.5841
MEAN_ANOMALY   = 224.4723

EPHEMERIS_TYPE = 0
CLASSIFICATION_TYPE = U
NORAD_CAT_ID   = 21876
ELEMENT_SET_NO = 999
REV_AT_EPOCH   = 70345
BSTAR          = .97706674E-4
MEAN_MOTION_DOT = .11E-5
MEAN_MOTION_DDOT = 0

CCSDS_OMM_VERS = 2.0
CREATION_DATE  = 
ORIGINATOR     = 

OBJECT_NAME    = SL-8 R/B
OBJECT_ID      = 1992-020B
CENTER_NAME    = EARTH
REF_FRAME      = TEME
TIME_SYSTEM    = UTC
MEAN_ELEMENT_THEORY = SGP/SGP4

EPOCH          = 2026-01-24T11:09:51.820704
MEAN_MOTION    = 13.75541198
ECCENTRICITY   = .00300725
INCLINATION    = 82.9305
RA_OF_ASC_NODE = 186.5892
ARG_OF_PERICENTER = 62.5873
MEAN_ANOMALY   = 351.2212

EPHEMERIS_TYPE = 0
CLASSIFICATION_TYPE = U
NORAD_CAT_ID   = 21938
ELEMENT_SET_NO = 999
REV_AT_EPOCH   = 69505
BSTAR          = .19245665E-3
MEAN_MOTION_DOT = .201E-5
MEAN_MOTION_DDOT = 0

CCSDS_OMM_VERS = 2.0
CREATION_DATE  = 
ORIGINATOR     = 

OBJECT_NAME    = USA 81
OBJECT_ID      = 1992-023A
CENTER_NAME    = EARTH
REF_FRAME      = TEME
TIME_SYSTEM    = UTC
MEAN_ELEMENT_THEORY = SGP/SGP4

EPOCH          = 2026-01-25T06:38:44.302560
MEAN_MOTION    = 14.32349147
ECCENTRICITY   = .00021654
INCLINATION    = 85.0112
RA_OF_ASC_NODE = 156.4705
ARG_OF_PERICENTER = 114.0217
MEAN_ANOMALY   = 246.1203

EPHEMERIS_TYPE = 0
CLASSIFICATION_TYPE = U
NORAD_CAT_ID   = 21949
ELEMENT_SET_NO = 999
REV_AT_EPOCH   = 8857
BSTAR          = .14184195E-3
MEAN_MOTION_DOT = .403E-5
MEAN_MOTION_DDOT = 0

CCSDS_OMM_VERS = 2.0
CREATION_DATE  = 
ORIGINATOR     = 

OBJECT_NAME    = COSMOS 2219
OBJECT_ID      = 1992-076A
CENTER_NAME    = EARTH
REF_FRAME      = TEME
TIME_SYSTEM    = UTC
MEAN_ELEMENT_THEORY = SGP/SGP4

EPOCH          = 2026-01-25T07:11:37.970592
MEAN_MOTION    = 14.14080907
ECCENTRICITY   = .00208077
INCLINATION    = 71.0612
RA_OF_ASC_NODE = 108.7784
ARG_OF_PERICENTER = 267.2717
MEAN_ANOMALY   = 92.6024

EPHEMERIS_TYPE = 0
CLASSIFICATION_TYPE = U
NORAD_CAT_ID   = 22219
ELEMENT_SET_NO = 999
REV_AT_EPOCH   = 71224
BSTAR          = -.57012801E-4
MEAN_MOTION_DOT = -.156E-5
MEAN_MOTION_DDOT = 0

CCSDS_OMM_VERS = 2.0
CREATION_DATE  = 
ORIGINATOR     = 

OBJECT_NAME    = SL-16 R/B
OBJECT_ID      = 1992-076B
CENTER_NAME    = EARTH
REF_FRAME      = TEME
TIME_SYSTEM    = UTC
MEAN_ELEMENT_THEORY = SGP/SGP4

EPOCH          = 2026-01-25T03:30:07.270272
MEAN_MOTION    = 14.16850431
ECCENTRICITY   = .00123683
INCLINATION    = 70.9997
RA_OF_ASC_NODE = 280.0993
ARG_OF_PERICENTER = 171.8916
MEAN_ANOMALY   = 297.6725

EPHEMERIS_TYPE = 0
CLASSIFICATION_TYPE = U
NORAD_CAT_ID   = 22220
ELEMENT_SET_NO = 999
REV_AT_EPOCH   = 71566
BSTAR          = -.32924103E-4
MEAN_MOTION_DOT = -.114E-5
MEAN_MOTION_DDOT = 0

CCSDS_OMM_VERS = 2.0
CREATION_DATE  = 
ORIGINATOR     = 

OBJECT_NAME    = COSMOS 2221
OBJECT_ID      = 1992-080A
CENTER_NAME    = EARTH
REF_FRAME      = TEME
TIME_SYSTEM    = UTC
MEAN_ELEMENT_THEORY = SGP/SGP4

EPOCH          = 2026-01-25T05:32:45.684384
MEAN_MOTION    = 14.95998058
ECCENTRICITY   = .00141488
INCLINATION    = 82.5064
RA_OF_ASC_NODE = 320.6949
ARG_OF_PERICENTER = 345.9915
MEAN_ANOMALY   = 14.0913

EPHEMERIS_TYPE = 0
CLASSIFICATION_TYPE = U
NORAD_CAT_ID   = 22236
ELEMENT_SET_NO = 999
REV_AT_EPOCH   = 77429
BSTAR          = .37164503E-3
MEAN_MOTION_DOT = .42E-4
MEAN_MOTION_DDOT = 0

CCSDS_OMM_VERS = 2.0
CREATION_DATE  = 
ORIGINATOR     = 

OBJECT_NAME    = SL-16 R/B
OBJECT_ID      = 1992-093B
CENTER_NAME    = EARTH
REF_FRAME      = TEME
TIME_SYSTEM    = UTC
MEAN_ELEMENT_THEORY = SGP/SGP4

EPOCH          = 2026-01-25T06:39:16.751808
MEAN_MOTION    = 14.15443432
ECCENTRICITY   = .0004485
INCLINATION    = 71.0221
RA_OF_ASC_NODE = 95.4039
ARG_OF_PERICENTER = 341.1453
MEAN_ANOMALY   = 18.9503

EPHEMERIS_TYPE = 0
CLASSIFICATION_TYPE = U
NORAD_CAT_ID   = 22285
ELEMENT_SET_NO = 999
REV_AT_EPOCH   = 70701
BSTAR          = .55182415E-4
MEAN_MOTION_DOT = .6E-6
MEAN_MOTION_DDOT = 0

CCSDS_OMM_VERS = 2.0
CREATION_DATE  = 
ORIGINATOR     = 

OBJECT_NAME    = COSMOS 2228
OBJECT_ID      = 1992-094A
CENTER_NAME    = EARTH
REF_FRAME      = TEME
TIME_SYSTEM    = UTC
MEAN_ELEMENT_THEORY = SGP/SGP4

EPOCH          = 2026-01-25T06:37:09.903648
MEAN_MOTION    = 14.96978603
ECCENTRICITY   = .00196505
INCLINATION    = 82.5175
RA_OF_ASC_NODE = 278.8780
ARG_OF_PERICENTER = 87.8383
MEAN_ANOMALY   = 272.5089

EPHEMERIS_TYPE = 0
CLASSIFICATION_TYPE = U
NORAD_CAT_ID   = 22286
ELEMENT_SET_NO = 999
REV_AT_EPOCH   = 76956
BSTAR          = .26237027E-3
MEAN_MOTION_DOT = .3054E-4
MEAN_MOTION_DDOT = 0

